[{"OBJECT_NAME":"STARLINK-31203","OBJECT_ID":"2024-019S","EPOCH":"2026-03-09T13:20:33.833760","MEAN_MOTION":15.27575211,"ECCENTRICITY":0.00014601,"INCLINATION":43.0003,"RA_OF_ASC_NODE":246.0511,"ARG_OF_PERICENTER":234.9136,"MEAN_ANOMALY":125.1579,"EPHEMERIS_TYPE":0,"CLASSIFICATION_TYPE":"U","NORAD_CAT_ID":58869,"ELEMENT_SET_NO":999,"REV_AT_EPOCH":11910,"BSTAR":2.3978092e-5,"MEAN_MOTION_DOT":3.98e-6,"MEAN_MOTION_DDOT":0},{"OBJECT_NAME":"VSP RF B1","OBJECT_ID":"2024-043AR","EPOCH":"2026-03-09T22:40:29.479296","MEAN_MOTION":15.26694159,"ECCENTRICITY":0.00102608,"INCLINATION":97.5446,"RA_OF_ASC_NODE":204.7052,"ARG_OF_PERICENTER":220.7435,"MEAN_ANOMALY":139.3037,"EPHEMERIS_TYPE":0,"CLASSIFICATION_TYPE":"U","NORAD_CAT_ID":59137,"ELEMENT_SET_NO":999,"REV_AT_EPOCH":11187,"BSTAR":0.00024406819,"MEAN_MOTION_DOT":6.341e-5,"MEAN_MOTION_DDOT":0}]
